[{"name":"FENGYUN 4A","l1":"1 41882U 16077A   26183.82775139 -.00000347  00000+0  00000+0 0  9999","l2":"2 41882   2.3604  80.1191 0007921 158.0007 104.4703  1.00275999 35087","cat":"geostationary"},{"name":"GAOFEN-1","l1":"1 39150U 13018A   26183.78501348  .00000797  00000+0  12141-3 0  9991","l2":"2 39150  97.9093 255.5360 0015993 212.2055 147.8180 14.76507525710545","cat":"other"},{"name":"FORMOSAT-5","l1":"1 42920U 17049A   26183.77650546  .00000202  00000+0  62165-4 0  9995","l2":"2 42920  98.2251 258.7398 0012137  40.6850 319.5250 14.50904612468932","cat":"other"},{"name":"FENGYUN 3D","l1":"1 43010U 17072A   26183.79274682 -.00000302  00000+0 -12096-3 0  9997","l2":"2 43010  99.0132 158.4976 0002156  37.0736 323.0588 14.19740968447209","cat":"science"},{"name":"GAOFEN-1 02","l1":"1 43259U 18031A   26183.75039090  .00001158  00000+0  17384-3 0  9999","l2":"2 43259  98.0521 246.2333 0002309 347.6115  12.5037 14.76458699444991","cat":"other"},{"name":"GAOFEN-1 03","l1":"1 43260U 18031B   26183.79618124  .00000849  00000+0  12944-3 0  9999","l2":"2 43260  98.0510 246.1359 0003313  46.4771 313.6714 14.76448295444994","cat":"other"},{"name":"FENGYUN 3E","l1":"1 49008U 21062A   26183.77488187  .00000123  00000+0  78678-4 0  9997","l2":"2 49008  98.7490 187.0089 0002665  60.9337 299.2106 14.19905723258791","cat":"science"},{"name":"FENGYUN 3G","l1":"1 56232U 23055A   26183.80645860  .00022887  00000+0  36147-3 0  9990","l2":"2 56232  49.9922 265.5037 0007319   1.7685 358.3307 15.53321812182438","cat":"science"},{"name":"FENGYUN 3F","l1":"1 57490U 23111A   26183.75842947  .00000059  00000+0  48024-4 0  9994","l2":"2 57490  98.6831 253.4767 0001482  82.6304 277.5041 14.19941741151075","cat":"science"},{"name":"FENGYUN 3H","l1":"1 65815U 25219A   26183.82547603  .00000062  00000+0  49611-4 0  9991","l2":"2 65815  98.6770 124.2907 0001387  65.8877 294.2444 14.19923114 39601","cat":"science"}]